COSMOS 2433 (720)       
1 32275U 07052A   22275.61133551 -.00000071  00000+0  00000+0 0  9993
2 32275  66.0766   1.1169 0003777 218.2539 170.5519  2.13104325116258
COSMOS 2432 (719)       
1 32276U 07052B   22274.85493986 -.00000067  00000+0  00000+0 0  9995
2 32276  66.0907   1.2452 0008121 321.2417 155.3014  2.13103468116236
COSMOS 2434 (721)       
1 32393U 07065A   22275.42530640  .00000054  00000+0  00000+0 0  9997
2 32393  64.3713 237.7744 0000389 117.2012  18.8216  2.13103191114951
COSMOS 2436 (723)       
1 32395U 07065C   22275.75059348  .00000051  00000+0  00000+0 0  9993
2 32395  64.3801 237.8214 0015341 352.1189 169.2552  2.13102909114896
COSMOS 2456 (730)       
1 36111U 09070A   22275.28500847  .00000056  00000+0  00000+0 0  9999
2 36111  64.3795 117.3850 0002217 335.0651 217.4282  2.13099355 99616
COSMOS 2457 (733)       
1 36112U 09070B   22275.80501993  .00000058  00000+0  00000+0 0  9993
2 36112  64.3614 117.2409 0006075 149.7492 209.8120  2.13101561 99625
COSMOS 2461 (735)       
1 36401U 10007B   22275.90009681 -.00000072  00000+0  00000+0 0  9991
2 36401  65.9591 359.9306 0018187   6.0662 101.5360  2.13103669 97981
COSMOS 2460 (732)       
1 36402U 10007C   22275.48540742 -.00000070  00000+0  00000+0 0  9991
2 36402  65.9465 359.8923 0001742 168.3406 290.5953  2.13106503 97979
COSMOS 2464 (736)       
1 37139U 10041C   22275.60916537  .00000050  00000+0  00000+0 0  9997
2 37139  63.9703 236.7902 0028665   6.3199 128.1929  2.13100869 94035
COSMOS 2476 (744)       
1 37867U 11064A   22275.39876397  .00000056  00000+0  00000+0 0  9992
2 37867  64.6665 118.7793 0020496 232.2823 313.8810  2.13101947 84964
COSMOS 2477 (745)       
1 37868U 11064B   22275.81848809  .00000058  00000+0  00000+0 0  9999
2 37868  64.6730 118.8307 0017787 232.3420  93.8849  2.13101789 84920
COSMOS 2475 (743)       
1 37869U 11064C   22275.21224381  .00000055  00000+0  00000+0 0  9994
2 37869  64.6807 118.8603 0021651 252.2882 286.9916  2.13102087 84925
COSMOS 2485 (747)       
1 39155U 13019A   22275.34157828  .00000056  00000+0  00000+0 0  9992
2 39155  64.8291 119.2322 0021123 228.2237 318.4758  2.13102054 73431
COSMOS 2492 (754)       
1 39620U 14012A   22275.48823604 -.00000070  00000+0  00000+0 0  9997
2 39620  65.8324 359.5583 0011309 317.6294  15.9456  2.13103296 66384
COSMOS 2500 (755)       
1 40001U 14032A   22275.69841185 -.00000071  00000+0  00000+0 0  9992
2 40001  65.7718 359.4043 0007981 196.8796 156.2930  2.13102425 64602
COSMOS 2501 (702K)      
1 40315U 14075A   22275.68477641  .00000050  00000+0  00000+0 0  9994
2 40315  63.6771 237.4150 0019244 212.1772 299.0647  2.13101442 61012
COSMOS 2514 (751)       
1 41330U 16008A   22275.46741016 -.00000070  00000+0  00000+0 0  9999
2 41330  65.5702 359.0782 0011885 209.8409 150.1383  2.13102560 51778
COSMOS 2516 (753)       
1 41554U 16032A   22275.23319819  .00000055  00000+0  00000+0 0  9993
2 41554  63.9031 237.7375 0014931 216.4108 228.8171  2.13106446 49376
COSMOS 2522 (752)       
1 42939U 17055A   22275.37378659  .00000054  00000+0  00000+0 0  9998
2 42939  64.1371 238.1591 0009733 245.6259 162.4817  2.13102098 39136
COSMOS 2527 (756)       
1 43508U 18053A   22275.73848604  .00000058  00000+0  00000+0 0  9996
2 43508  64.9907 119.2417 0007217 217.8075 142.1520  2.13102584 33422
COSMOS 2529 (757)       
1 43687U 18086A   22275.49436833  .00000054  00000+0  00000+0 0  9996
2 43687  64.3520 238.4999 0011570 264.7965 191.3395  2.13102184 30441
COSMOS 2534 (758)       
1 44299U 19030A   22275.23972542  .00000056  00000+0  00000+0 0  9992
2 44299  64.4241 238.4033 0013982 283.1931 112.0743  2.13101935 26083
COSMOS 2544 (759)       
1 44850U 19088A   22275.53009022  .00000058  00000+0  16595+1 0  9994
2 44850  64.9766 119.0992 0010804 254.2241 349.2406  2.13102373 21851
COSMOS 2545 (760)       
1 45358U 20018A   22275.34496716 -.00000071  00000+0  00000+0 0  9991
2 45358  64.9090 359.6022 0009695 236.8467  73.9436  2.13102784 19805
COSMOS 2547 (705K)      
1 46805U 20075A   22275.26309343  .00000056  00000+0  00000+0 0  9994
2 46805  64.6491 237.8584 0008536 246.8545 214.3981  2.13103027 15056
COSMOS 2557 (706K)      
1 52984U 22075A   22275.37073076 -.00000071  00000+0  10000-3 0  9997
2 52984  64.8131   1.7989 0011644 276.2982 145.3010  2.13101983  1855
